GLOBALSTAR M079 [+]     
1 37188U 10054A   24020.83054028 -.00000079  00000+0  13995-3 0  9991
2 37188  52.0029 262.5285 0000675  69.0153   8.3418 12.62265900612308
GLOBALSTAR M074 [+]     
1 37189U 10054B   24020.08457189 -.00000075  00000+0  15816-3 0  9994
2 37189  52.0008 264.2019 0000946  67.1225  98.5141 12.62264538612131
GLOBALSTAR M076 [+]     
1 37190U 10054C   24020.11119517 -.00000077  00000+0  14985-3 0  9998
2 37190  52.0022 264.2486 0000823  28.2369 136.2991 12.62257942611850
GLOBALSTAR M077 [+]     
1 37191U 10054D   24020.01884135 -.00000078  00000+0  14248-3 0  9996
2 37191  52.0042 221.2351 0001107  78.6649  86.7212 12.62268904612219
GLOBALSTAR M075 [+]     
1 37192U 10054E   24020.28410694 -.00000080  00000+0  13423-3 0  9998
2 37192  51.9966 306.2640 0000506  63.5040 107.6592 12.62269617611101
GLOBALSTAR M073 [+]     
1 37193U 10054F   24020.73872792 -.00000074  00000+0  16394-3 0  9993
2 37193  52.0031 218.3018 0001005  80.1465   0.1042 12.62271793613040
GLOBALSTAR M083 [+]     
1 37739U 11033A   24020.84958661 -.00000079  00000+0  13649-3 0  9994
2 37739  51.9843 167.3961 0001057 113.7892  50.3149 12.62265296582387
GLOBALSTAR M088 [+]     
1 37740U 11033B   24020.32920819 -.00000095  00000+0  50551-4 0  9995
2 37740  51.9739  74.9047 0000656 149.5371 289.3522 12.62264103577507
GLOBALSTAR M091 [+]     
1 37741U 11033C   24020.34771530 -.00000096  00000+0  45908-4 0  9993
2 37741  52.0012  37.4853 0000452 160.3951 301.8681 12.62270230578293
GLOBALSTAR M085 [+]     
1 37742U 11033D   24020.09196389 -.00000087  00000+0  93872-4 0  9992
2 37742  51.9895 349.7589 0000231 109.8269 329.4418 12.62266581578772
GLOBALSTAR M081 [+]     
1 37743U 11033E   24020.37465601 -.00000090  00000+0  75061-4 0  9994
2 37743  51.9987 351.3672 0000048 155.0395   9.7620 12.62268526578950
GLOBALSTAR M089 [+]     
1 37744U 11033F   24020.25581154 -.00000079  00000+0  13602-3 0  9993
2 37744  51.9949 306.0540 0000696  35.7108 129.4947 12.62271572579784
GLOBALSTAR M084 [+]     
1 38040U 11080A   24020.81975983 -.00000093  00000+0  61195-4 0  9991
2 38040  51.9990 171.3514 0000982  81.7628  65.9526 12.62270306558115
GLOBALSTAR M080 [+]     
1 38041U 11080B   24020.62040446 -.00000098  00000+0  31629-4 0  9992
2 38041  52.0041 173.3852 0000817  75.3785   5.5741 12.62268511558071
GLOBALSTAR M082 [+]     
1 38042U 11080C   24020.63954785 -.00000100  00000+0  19555-4 0  9992
2 38042  52.0073 128.7180 0001409 127.0465 341.7533 12.62265225558818
GLOBALSTAR M092 [+]     
1 38043U 11080D   24020.84975476 -.00000080  00000+0  13161-3 0  9999
2 38043  52.0053 218.4325 0001186  76.6739  25.3841 12.62275660557337
GLOBALSTAR M090 [+]     
1 38044U 11080E   24020.58529657 -.00000099  00000+0  24335-4 0  9993
2 38044  51.9884 123.3525 0001001 128.3288 334.6322 12.62265399558759
GLOBALSTAR M086 [+]     
1 38045U 11080F   24020.44795941 -.00000109  00000+0 -30013-4 0  9993
2 38045  51.9895 124.2830 0000566 200.2731 237.4929 12.62266506558685
GLOBALSTAR M097 [+]     
1 39072U 13005A   24020.21942714 -.00000092  00000+0  64849-4 0  9994
2 39072  52.0059  39.0006 0000340 156.6109 203.4773 12.62260099505909
GLOBALSTAR M093 [+]     
1 39073U 13005B   24020.35130539 -.00000091  00000+0  71767-4 0  9990
2 39073  51.9826  32.7250 0000445 173.4532 186.6341 12.62260021505878
GLOBALSTAR M094 [+]     
1 39074U 13005C   24020.74740051 -.00000082  00000+0  12417-3 0  9996
2 39074  51.9975 305.3908 0000414  60.9997 299.0911 12.62271208507552
GLOBALSTAR M096 [+]     
1 39075U 13005D   24020.20655272 -.00000086  00000+0  96506-4 0  9994
2 39075  52.0099 355.1511 0000195 142.0117 218.0764 12.62267699506383
GLOBALSTAR M078 [+]     
1 39076U 13005E   24020.33855753 -.00000094  00000+0  53863-4 0  9993
2 39076  51.9877  79.9569 0001550 122.2409 237.8608 12.62257505505021
GLOBALSTAR M095 [+]     
1 39077U 13005F   24020.52294224 -.00000093  00000+0  59540-4 0  9992
2 39077  51.9811  76.8458 0001118 146.7215 213.3722 12.62262811504907
GLOBALSTAR M087 [+]     
1 52888U 22064A   24020.33503872 -.00000087  00000+0  78049-4 0  9991
2 52888  51.9780   7.4176 0009477 349.3128  10.7570 13.37562885 77603
